STARLINK-35179          
1 66066U 25235J   25303.86818338 -.00391911  00000+0 -17379-2 0  9993
2 66066  53.1511 133.3914 0000509 334.2342  25.8656 15.84613037  2979
STARLINK-35401          
1 66067U 25235K   25303.86777111 -.00402142  00000+0 -17854-2 0  9994
2 66067  53.1511 133.3898 0000856 346.7374  13.3627 15.84611898  2949
STARLINK-35422          
1 66068U 25235L   25303.74123336 -.00342370  00000+0 -14759-2 0  9993
2 66068  53.1501 134.0219 0001465 238.3788 121.7094 15.85073758  2924
STARLINK-35279          
1 66069U 25235M   25303.74076866 -.00449158  00000+0 -19725-2 0  9999
2 66069  53.1505 134.0194 0001226 359.7239   0.3784 15.84949344  2958
STARLINK-35295          
1 66070U 25235N   25303.86603663 -.00462871  00000+0 -20727-2 0  9996
2 66070  53.1508 133.3772 0000889 200.1849 159.9140 15.84580117  2975
STARLINK-35323          
1 66071U 25235P   25303.86605793  .00385762  00000+0  14356-2 0  9995
2 66071  53.1508 133.3788 0007344 294.3222  65.7036 15.86462785  2976
STARLINK-35299          
1 66072U 25235Q   25303.86563960 -.00550349  00000+0 -24946-2 0  9998
2 66072  53.1500 133.3756 0001000   4.7542 355.3492 15.84536294  2974
STARLINK-35274          
1 66073U 25235R   25303.80120999  .01012575  43292-3  35734-2 0  9998
2 66073  53.1500 133.6835 0017385 285.6810  74.2297 15.88332389  2969
STARLINK-35321          
1 66074U 25235S   25303.92792433  .00398028  00000+0  16134-2 0  9998
2 66074  53.1505 133.0504 0005490  11.3049 348.8098 15.84675191  2982
STARLINK-35131          
1 66075U 25235T   25303.86348374  .00486552  00000+0  19461-2 0  9999
2 66075  53.1506 133.3592 0006323 334.7779  25.2935 15.84730881  2975
STARLINK-34801          
1 66076U 25235U   25303.80118963 -.00524730  00000+0 -23475-2 0  9996
2 66076  53.1501 133.6821 0001041 212.2755 147.8206 15.84746927  2964
STARLINK-35129          
1 66077U 25235V   25303.86390979 -.00525238  00000+0 -23752-2 0  9994
2 66077  53.1511 133.3635 0001139   6.7888 353.3151 15.84524313  2974
