CCSDS_OMM_VERS = 2.0
CREATION_DATE  = 
ORIGINATOR     = 

OBJECT_NAME    = STARLINK-35179
OBJECT_ID      = 2025-235J
CENTER_NAME    = EARTH
REF_FRAME      = TEME
TIME_SYSTEM    = UTC
MEAN_ELEMENT_THEORY = SGP/SGP4

EPOCH          = 2025-10-30T20:50:11.044032
MEAN_MOTION    = 15.84613037
ECCENTRICITY   = .00005092
INCLINATION    = 53.1511
RA_OF_ASC_NODE = 133.3914
ARG_OF_PERICENTER = 334.2342
MEAN_ANOMALY   = 25.8656

EPHEMERIS_TYPE = 0
CLASSIFICATION_TYPE = U
NORAD_CAT_ID   = 66066
ELEMENT_SET_NO = 999
REV_AT_EPOCH   = 297
BSTAR          = -.17378912E-2
MEAN_MOTION_DOT = -.391911E-2
MEAN_MOTION_DDOT = 0

CCSDS_OMM_VERS = 2.0
CREATION_DATE  = 
ORIGINATOR     = 

OBJECT_NAME    = STARLINK-35401
OBJECT_ID      = 2025-235K
CENTER_NAME    = EARTH
REF_FRAME      = TEME
TIME_SYSTEM    = UTC
MEAN_ELEMENT_THEORY = SGP/SGP4

EPOCH          = 2025-10-30T20:49:35.423904
MEAN_MOTION    = 15.84611898
ECCENTRICITY   = .00008568
INCLINATION    = 53.1511
RA_OF_ASC_NODE = 133.3898
ARG_OF_PERICENTER = 346.7374
MEAN_ANOMALY   = 13.3627

EPHEMERIS_TYPE = 0
CLASSIFICATION_TYPE = U
NORAD_CAT_ID   = 66067
ELEMENT_SET_NO = 999
REV_AT_EPOCH   = 294
BSTAR          = -.17853663E-2
MEAN_MOTION_DOT = -.402142E-2
MEAN_MOTION_DDOT = 0

CCSDS_OMM_VERS = 2.0
CREATION_DATE  = 
ORIGINATOR     = 

OBJECT_NAME    = STARLINK-35422
OBJECT_ID      = 2025-235L
CENTER_NAME    = EARTH
REF_FRAME      = TEME
TIME_SYSTEM    = UTC
MEAN_ELEMENT_THEORY = SGP/SGP4

EPOCH          = 2025-10-30T17:47:22.562304
MEAN_MOTION    = 15.85073758
ECCENTRICITY   = .0001465
INCLINATION    = 53.1501
RA_OF_ASC_NODE = 134.0219
ARG_OF_PERICENTER = 238.3788
MEAN_ANOMALY   = 121.7094

EPHEMERIS_TYPE = 0
CLASSIFICATION_TYPE = U
NORAD_CAT_ID   = 66068
ELEMENT_SET_NO = 999
REV_AT_EPOCH   = 292
BSTAR          = -.14759E-2
MEAN_MOTION_DOT = -.34237E-2
MEAN_MOTION_DDOT = 0

CCSDS_OMM_VERS = 2.0
CREATION_DATE  = 
ORIGINATOR     = 

OBJECT_NAME    = STARLINK-35279
OBJECT_ID      = 2025-235M
CENTER_NAME    = EARTH
REF_FRAME      = TEME
TIME_SYSTEM    = UTC
MEAN_ELEMENT_THEORY = SGP/SGP4

EPOCH          = 2025-10-30T17:46:42.412224
MEAN_MOTION    = 15.84949344
ECCENTRICITY   = .00012266
INCLINATION    = 53.1505
RA_OF_ASC_NODE = 134.0194
ARG_OF_PERICENTER = 359.7239
MEAN_ANOMALY   = 0.3784

EPHEMERIS_TYPE = 0
CLASSIFICATION_TYPE = U
NORAD_CAT_ID   = 66069
ELEMENT_SET_NO = 999
REV_AT_EPOCH   = 295
BSTAR          = -.19724863E-2
MEAN_MOTION_DOT = -.449158E-2
MEAN_MOTION_DDOT = 0

CCSDS_OMM_VERS = 2.0
CREATION_DATE  = 
ORIGINATOR     = 

OBJECT_NAME    = STARLINK-35295
OBJECT_ID      = 2025-235N
CENTER_NAME    = EARTH
REF_FRAME      = TEME
TIME_SYSTEM    = UTC
MEAN_ELEMENT_THEORY = SGP/SGP4

EPOCH          = 2025-10-30T20:47:05.564832
MEAN_MOTION    = 15.84580117
ECCENTRICITY   = .00008898
INCLINATION    = 53.1508
RA_OF_ASC_NODE = 133.3772
ARG_OF_PERICENTER = 200.1849
MEAN_ANOMALY   = 159.9140

EPHEMERIS_TYPE = 0
CLASSIFICATION_TYPE = U
NORAD_CAT_ID   = 66070
ELEMENT_SET_NO = 999
REV_AT_EPOCH   = 297
BSTAR          = -.20727246E-2
MEAN_MOTION_DOT = -.462871E-2
MEAN_MOTION_DDOT = 0

CCSDS_OMM_VERS = 2.0
CREATION_DATE  = 
ORIGINATOR     = 

OBJECT_NAME    = STARLINK-35323
OBJECT_ID      = 2025-235P
CENTER_NAME    = EARTH
REF_FRAME      = TEME
TIME_SYSTEM    = UTC
MEAN_ELEMENT_THEORY = SGP/SGP4

EPOCH          = 2025-10-30T20:47:07.405152
MEAN_MOTION    = 15.86462785
ECCENTRICITY   = .00073442
INCLINATION    = 53.1508
RA_OF_ASC_NODE = 133.3788
ARG_OF_PERICENTER = 294.3222
MEAN_ANOMALY   = 65.7036

EPHEMERIS_TYPE = 0
CLASSIFICATION_TYPE = U
NORAD_CAT_ID   = 66071
ELEMENT_SET_NO = 999
REV_AT_EPOCH   = 297
BSTAR          = .14356408E-2
MEAN_MOTION_DOT = .385762E-2
MEAN_MOTION_DDOT = 0

CCSDS_OMM_VERS = 2.0
CREATION_DATE  = 
ORIGINATOR     = 

OBJECT_NAME    = STARLINK-35299
OBJECT_ID      = 2025-235Q
CENTER_NAME    = EARTH
REF_FRAME      = TEME
TIME_SYSTEM    = UTC
MEAN_ELEMENT_THEORY = SGP/SGP4

EPOCH          = 2025-10-30T20:46:31.261440
MEAN_MOTION    = 15.84536294
ECCENTRICITY   = .00010008
INCLINATION    = 53.1500
RA_OF_ASC_NODE = 133.3756
ARG_OF_PERICENTER = 4.7542
MEAN_ANOMALY   = 355.3492

EPHEMERIS_TYPE = 0
CLASSIFICATION_TYPE = U
NORAD_CAT_ID   = 66072
ELEMENT_SET_NO = 999
REV_AT_EPOCH   = 297
BSTAR          = -.24946466E-2
MEAN_MOTION_DOT = -.550349E-2
MEAN_MOTION_DDOT = 0

CCSDS_OMM_VERS = 2.0
CREATION_DATE  = 
ORIGINATOR     = 

OBJECT_NAME    = STARLINK-35274
OBJECT_ID      = 2025-235R
CENTER_NAME    = EARTH
REF_FRAME      = TEME
TIME_SYSTEM    = UTC
MEAN_ELEMENT_THEORY = SGP/SGP4

EPOCH          = 2025-10-30T19:13:44.543136
MEAN_MOTION    = 15.88332389
ECCENTRICITY   = .0017385
INCLINATION    = 53.1500
RA_OF_ASC_NODE = 133.6835
ARG_OF_PERICENTER = 285.6810
MEAN_ANOMALY   = 74.2297

EPHEMERIS_TYPE = 0
CLASSIFICATION_TYPE = U
NORAD_CAT_ID   = 66073
ELEMENT_SET_NO = 999
REV_AT_EPOCH   = 296
BSTAR          = .35734E-2
MEAN_MOTION_DOT = .1012575E-1
MEAN_MOTION_DDOT = .43292E-3

CCSDS_OMM_VERS = 2.0
CREATION_DATE  = 
ORIGINATOR     = 

OBJECT_NAME    = STARLINK-35321
OBJECT_ID      = 2025-235S
CENTER_NAME    = EARTH
REF_FRAME      = TEME
TIME_SYSTEM    = UTC
MEAN_ELEMENT_THEORY = SGP/SGP4

EPOCH          = 2025-10-30T22:16:12.662112
MEAN_MOTION    = 15.84675191
ECCENTRICITY   = .00054907
INCLINATION    = 53.1505
RA_OF_ASC_NODE = 133.0504
ARG_OF_PERICENTER = 11.3049
MEAN_ANOMALY   = 348.8098

EPHEMERIS_TYPE = 0
CLASSIFICATION_TYPE = U
NORAD_CAT_ID   = 66074
ELEMENT_SET_NO = 999
REV_AT_EPOCH   = 298
BSTAR          = .16134028E-2
MEAN_MOTION_DOT = .398028E-2
MEAN_MOTION_DDOT = 0

CCSDS_OMM_VERS = 2.0
CREATION_DATE  = 
ORIGINATOR     = 

OBJECT_NAME    = STARLINK-35131
OBJECT_ID      = 2025-235T
CENTER_NAME    = EARTH
REF_FRAME      = TEME
TIME_SYSTEM    = UTC
MEAN_ELEMENT_THEORY = SGP/SGP4

EPOCH          = 2025-10-30T20:43:24.995136
MEAN_MOTION    = 15.84730881
ECCENTRICITY   = .00063231
INCLINATION    = 53.1506
RA_OF_ASC_NODE = 133.3592
ARG_OF_PERICENTER = 334.7779
MEAN_ANOMALY   = 25.2935

EPHEMERIS_TYPE = 0
CLASSIFICATION_TYPE = U
NORAD_CAT_ID   = 66075
ELEMENT_SET_NO = 999
REV_AT_EPOCH   = 297
BSTAR          = .19460908E-2
MEAN_MOTION_DOT = .486552E-2
MEAN_MOTION_DDOT = 0

CCSDS_OMM_VERS = 2.0
CREATION_DATE  = 
ORIGINATOR     = 

OBJECT_NAME    = STARLINK-34801
OBJECT_ID      = 2025-235U
CENTER_NAME    = EARTH
REF_FRAME      = TEME
TIME_SYSTEM    = UTC
MEAN_ELEMENT_THEORY = SGP/SGP4

EPOCH          = 2025-10-30T19:13:42.784032
MEAN_MOTION    = 15.84746927
ECCENTRICITY   = .00010417
INCLINATION    = 53.1501
RA_OF_ASC_NODE = 133.6821
ARG_OF_PERICENTER = 212.2755
MEAN_ANOMALY   = 147.8206

EPHEMERIS_TYPE = 0
CLASSIFICATION_TYPE = U
NORAD_CAT_ID   = 66076
ELEMENT_SET_NO = 999
REV_AT_EPOCH   = 296
BSTAR          = -.23475229E-2
MEAN_MOTION_DOT = -.52473E-2
MEAN_MOTION_DDOT = 0

CCSDS_OMM_VERS = 2.0
CREATION_DATE  = 
ORIGINATOR     = 

OBJECT_NAME    = STARLINK-35129
OBJECT_ID      = 2025-235V
CENTER_NAME    = EARTH
REF_FRAME      = TEME
TIME_SYSTEM    = UTC
MEAN_ELEMENT_THEORY = SGP/SGP4

EPOCH          = 2025-10-30T20:44:01.805856
MEAN_MOTION    = 15.84524313
ECCENTRICITY   = .00011394
INCLINATION    = 53.1511
RA_OF_ASC_NODE = 133.3635
ARG_OF_PERICENTER = 6.7888
MEAN_ANOMALY   = 353.3151

EPHEMERIS_TYPE = 0
CLASSIFICATION_TYPE = U
NORAD_CAT_ID   = 66077
ELEMENT_SET_NO = 999
REV_AT_EPOCH   = 297
BSTAR          = -.23752216E-2
MEAN_MOTION_DOT = -.525238E-2
MEAN_MOTION_DDOT = 0

